{
  "type": "FeatureCollection",
  "features": [
    {
      "type": "Feature",
      "properties": {
        "norad_id": 44794,
        "name": "BEIDOU-3 M21 (C43)",
        "group": "beidou",
        "lat": 51.72506580754948,
        "lon": 59.31859294188261,
        "alt_km": 21522.565363142483,
        "timestamp": "2025-12-23T18:59:32.233990+00:00",
        "meta_object_name": "BEIDOU-3 M21 (C43)",
        "meta_object_id": "2019-078B",
        "meta_epoch": "2025-12-22T00:36:11.320992",
        "meta_mean_motion": 1.86227906,
        "meta_eccentricity": 0.00042988,
        "meta_inclination": 54.0732,
        "meta_ra_of_asc_node": 306.0255,
        "meta_arg_of_pericenter": 12.7951,
        "meta_mean_anomaly": 347.2162,
        "meta_ephemeris_type": 0,
        "meta_classification_type": "U",
        "meta_norad_cat_id": 44794,
        "meta_element_set_no": 999,
        "meta_rev_at_epoch": 4135,
        "meta_bstar": 0,
        "meta_mean_motion_dot": -5.8e-07,
        "meta_mean_motion_ddot": 0,
        "tle_line1": "1 44794U 19078B   25356.02513103 -.00000058  00000+0  00000+0 0  9991",
        "tle_line2": "2 44794  54.0732 306.0255 0004298  12.7951 347.2162  1.86227906 41359"
      },
      "geometry": {
        "type": "Point",
        "coordinates": [
          59.31859294188261,
          51.72506580754948
        ]
      }
    },
    {
      "type": "Feature",
      "properties": {
        "norad_id": 44864,
        "name": "BEIDOU-3 M19 (C41)",
        "group": "beidou",
        "lat": -46.16456701399533,
        "lon": 24.869095297728045,
        "alt_km": 21483.86263381664,
        "timestamp": "2025-12-23T18:59:32.234000+00:00",
        "meta_object_name": "BEIDOU-3 M19 (C41)",
        "meta_object_id": "2019-090A",
        "meta_epoch": "2025-12-23T08:14:02.545728",
        "meta_mean_motion": 1.86231621,
        "meta_eccentricity": 0.00183506,
        "meta_inclination": 56.4016,
        "meta_ra_of_asc_node": 68.6102,
        "meta_arg_of_pericenter": 285.1686,
        "meta_mean_anomaly": 74.3057,
        "meta_ephemeris_type": 0,
        "meta_classification_type": "U",
        "meta_norad_cat_id": 44864,
        "meta_element_set_no": 999,
        "meta_rev_at_epoch": 4095,
        "meta_bstar": 0,
        "meta_mean_motion_dot": -2.5e-07,
        "meta_mean_motion_ddot": 0,
        "tle_line1": "1 44864U 19090A   25357.34308502 -.00000025  00000+0  00000+0 0  9998",
        "tle_line2": "2 44864  56.4016  68.6102 0018350 285.1686  74.3057  1.86231621 40950"
      },
      "geometry": {
        "type": "Point",
        "coordinates": [
          24.869095297728045,
          -46.16456701399533
        ]
      }
    },
    {
      "type": "Feature",
      "properties": {
        "norad_id": 44865,
        "name": "BEIDOU-3 M20 (C42)",
        "group": "beidou",
        "lat": 24.41913065245642,
        "lon": 86.19057253710005,
        "alt_km": 21526.907276743204,
        "timestamp": "2025-12-23T18:59:32.234010+00:00",
        "meta_object_name": "BEIDOU-3 M20 (C42)",
        "meta_object_id": "2019-090B",
        "meta_epoch": "2025-12-23T05:19:57.002592",
        "meta_mean_motion": 1.86231582,
        "meta_eccentricity": 0.00155076,
        "meta_inclination": 56.4032,
        "meta_ra_of_asc_node": 68.6485,
        "meta_arg_of_pericenter": 297.2888,
        "meta_mean_anomaly": 70.7426,
        "meta_ephemeris_type": 0,
        "meta_classification_type": "U",
        "meta_norad_cat_id": 44865,
        "meta_element_set_no": 999,
        "meta_rev_at_epoch": 4094,
        "meta_bstar": 0,
        "meta_mean_motion_dot": -2.6e-07,
        "meta_mean_motion_ddot": 0,
        "tle_line1": "1 44865U 19090B   25357.22218753 -.00000026  00000+0  00000+0 0  9995",
        "tle_line2": "2 44865  56.4032  68.6485 0015507 297.2888  70.7426  1.86231582 40947"
      },
      "geometry": {
        "type": "Point",
        "coordinates": [
          86.19057253710005,
          24.41913065245642
        ]
      }
    },
    {
      "type": "Feature",
      "properties": {
        "norad_id": 45344,
        "name": "BEIDOU-3 G2 (C60)",
        "group": "beidou",
        "lat": 2.0465496986137963,
        "lon": 97.4726291932909,
        "alt_km": 35794.349564849465,
        "timestamp": "2025-12-23T18:59:32.234020+00:00",
        "meta_object_name": "BEIDOU-3 G2 (C60)",
        "meta_object_id": "2020-017A",
        "meta_epoch": "2025-12-19T13:38:45.370752",
        "meta_mean_motion": 1.00273166,
        "meta_eccentricity": 0.0002079,
        "meta_inclination": 2.5096,
        "meta_ra_of_asc_node": 44.0024,
        "meta_arg_of_pericenter": 233.0917,
        "meta_mean_anomaly": 96.0359,
        "meta_ephemeris_type": 0,
        "meta_classification_type": "U",
        "meta_norad_cat_id": 45344,
        "meta_element_set_no": 999,
        "meta_rev_at_epoch": 2145,
        "meta_bstar": 0,
        "meta_mean_motion_dot": -1.18e-06,
        "meta_mean_motion_ddot": 0,
        "tle_line1": "1 45344U 20017A   25353.56858068 -.00000118  00000+0  00000+0 0  9993",
        "tle_line2": "2 45344   2.5096  44.0024 0002079 233.0917  96.0359  1.00273166 21451"
      },
      "geometry": {
        "type": "Point",
        "coordinates": [
          97.4726291932909,
          2.0465496986137963
        ]
      }
    },
    {
      "type": "Feature",
      "properties": {
        "norad_id": 45807,
        "name": "BEIDOU-3 G3 (C61)",
        "group": "beidou",
        "lat": 1.7911219185818832,
        "lon": 128.05896424682402,
        "alt_km": 35797.082683969034,
        "timestamp": "2025-12-23T18:59:32.234031+00:00",
        "meta_object_name": "BEIDOU-3 G3 (C61)",
        "meta_object_id": "2020-040A",
        "meta_epoch": "2025-12-23T06:48:37.677024",
        "meta_mean_motion": 1.00268803,
        "meta_eccentricity": 0.00065635,
        "meta_inclination": 2.0151,
        "meta_ra_of_asc_node": 66.6726,
        "meta_arg_of_pericenter": 309.252,
        "meta_mean_anomaly": 288.8631,
        "meta_ephemeris_type": 0,
        "meta_classification_type": "U",
        "meta_norad_cat_id": 45807,
        "meta_element_set_no": 999,
        "meta_rev_at_epoch": 2030,
        "meta_bstar": 0,
        "meta_mean_motion_dot": -3.33e-06,
        "meta_mean_motion_ddot": 0,
        "tle_line1": "1 45807U 20040A   25357.28376941 -.00000333  00000+0  00000+0 0  9990",
        "tle_line2": "2 45807   2.0151  66.6726 0006563 309.2520 288.8631  1.00268803 20308"
      },
      "geometry": {
        "type": "Point",
        "coordinates": [
          128.05896424682402,
          1.7911219185818832
        ]
      }
    },
    {
      "type": "Feature",
      "properties": {
        "norad_id": 56564,
        "name": "BEIDOU-3 G4 (C62)",
        "group": "beidou",
        "lat": -0.6417802425613716,
        "lon": 177.51071006015073,
        "alt_km": 35775.350016392025,
        "timestamp": "2025-12-23T18:59:32.234041+00:00",
        "meta_object_name": "BEIDOU-3 G4 (C62)",
        "meta_object_id": "2023-066A",
        "meta_epoch": "2025-12-23T05:20:01.162752",
        "meta_mean_motion": 1.00271177,
        "meta_eccentricity": 0.00026427,
        "meta_inclination": 0.7933,
        "meta_ra_of_asc_node": 302.8574,
        "meta_arg_of_pericenter": 227.2049,
        "meta_mean_anomaly": 162.0161,
        "meta_ephemeris_type": 0,
        "meta_classification_type": "U",
        "meta_norad_cat_id": 56564,
        "meta_element_set_no": 999,
        "meta_rev_at_epoch": 963,
        "meta_bstar": 0,
        "meta_mean_motion_dot": -8.9e-07,
        "meta_mean_motion_ddot": 0,
        "tle_line1": "1 56564U 23066A   25357.22223568 -.00000089  00000+0  00000+0 0  9991",
        "tle_line2": "2 56564   0.7933 302.8574 0002642 227.2049 162.0161  1.00271177  9630"
      },
      "geometry": {
        "type": "Point",
        "coordinates": [
          177.51071006015073,
          -0.6417802425613716
        ]
      }
    },
    {
      "type": "Feature",
      "properties": {
        "norad_id": 58654,
        "name": "BEIDOU-3 M28 (C50)",
        "group": "beidou",
        "lat": 40.383292486438,
        "lon": 103.84775410260559,
        "alt_km": 21529.10464255858,
        "timestamp": "2025-12-23T18:59:32.234051+00:00",
        "meta_object_name": "BEIDOU-3 M28 (C50)",
        "meta_object_id": "2023-207A",
        "meta_epoch": "2025-12-23T04:15:12.326400",
        "meta_mean_motion": 1.86229739,
        "meta_eccentricity": 0.00028337,
        "meta_inclination": 55.5933,
        "meta_ra_of_asc_node": 68.248,
        "meta_arg_of_pericenter": 274.486,
        "meta_mean_anomaly": 85.5342,
        "meta_ephemeris_type": 0,
        "meta_classification_type": "U",
        "meta_norad_cat_id": 58654,
        "meta_element_set_no": 999,
        "meta_rev_at_epoch": 1356,
        "meta_bstar": 0,
        "meta_mean_motion_dot": -2.8e-07,
        "meta_mean_motion_ddot": 0,
        "tle_line1": "1 58654U 23207A   25357.17722600 -.00000028  00000+0  00000+0 0  9998",
        "tle_line2": "2 58654  55.5933  68.2480 0002833 274.4860  85.5342  1.86229739 13564"
      },
      "geometry": {
        "type": "Point",
        "coordinates": [
          103.84775410260559,
          40.383292486438
        ]
      }
    }
  ]
}